{
  "norad_id": 66257,
  "name": "STARLINK-35615",
  "history": [
    {
      "epoch": "2026-03-28T17:13:05.642688Z",
      "apogee_km": 475.8129872995032,
      "perigee_km": 474.5207283240752,
      "latitude_deg": -5.668733581808359e-05,
      "longitude_deg": 110.82338295999482,
      "height_km": 475.8712915804196,
      "semi_major_axis_km": 6853.303857811789,
      "eccentricity": 9.428e-05,
      "inclination_deg": 53.1577,
      "raan_deg": 195.2308,
      "arg_perigee_deg": 72.5357,
      "mean_anomaly_deg": 287.5746,
      "mean_motion_rev_day": 15.30216147
    }
  ]
}