{"fetched_at":"2026-03-30T13:17:50Z","count":15418,"tles":[{"name":"STARLINK-35615","line1":"1 66257U 25245Z   26087.71742642  .00023373  00000+0  79838-3 0  9995","line2":"2 66257  53.1577 195.2308 0000942  72.5357 287.5746 15.30216147 24171","category":"Starlink"}]}